[{"OBJECT_NAME":"XINGYUN-2 02","OBJECT_ID":"2020-028B","EPOCH":"2026-03-10T00:08:18.521088","MEAN_MOTION":15.11086378,"ECCENTRICITY":0.0009258,"INCLINATION":97.5114,"RA_OF_ASC_NODE":76.7595,"ARG_OF_PERICENTER":249.9829,"MEAN_ANOMALY":110.0404,"EPHEMERIS_TYPE":0,"CLASSIFICATION_TYPE":"U","NORAD_CAT_ID":45603,"ELEMENT_SET_NO":999,"REV_AT_EPOCH":31985,"BSTAR":0.00013296102,"MEAN_MOTION_DOT":2.163e-5,"MEAN_MOTION_DDOT":0},{"OBJECT_NAME":"STARLINK-5760","OBJECT_ID":"2023-020Y","EPOCH":"2026-03-09T22:00:01.999584","MEAN_MOTION":15.12850663,"ECCENTRICITY":8.72e-5,"INCLINATION":42.9998,"RA_OF_ASC_NODE":2.8445,"ARG_OF_PERICENTER":255.2012,"MEAN_ANOMALY":334.0246,"EPHEMERIS_TYPE":0,"CLASSIFICATION_TYPE":"U","NORAD_CAT_ID":55591,"ELEMENT_SET_NO":999,"REV_AT_EPOCH":537,"BSTAR":0.0015897393,"MEAN_MOTION_DOT":0.00028334,"MEAN_MOTION_DDOT":0}]
